0 DMSP 5D-2 F12 DEB
1 23277U 94057E   13283.10342167  .00006594  00000-0  18737-2 0  4657
2 23277 098.2058 295.1560 0016130 186.6581 214.3710 14.45607998996936
0 DMSP 5D-2 F12 DEB
1 23277U 94057E   13287.11809543  .00005950  00000-0  16906-2 0  4671
2 23277 098.2051 299.0391 0016429 174.6791 227.5447 14.45648652997515
0 DMSP 5D-2 F12 DEB
1 23277U 94057E   13289.12488463  .00008280  00000-0  23456-2 0  4686
2 23277 098.2045 300.9802 0016564 168.7100 231.5165 14.45678216997808
0 DMSP 5D-2 F12 DEB
1 23277U 94057E   13291.50142123  .00007137  00000-0  20225-2 0  4693
2 23277 098.2040 303.2786 0016695 161.7186 359.9480 14.45707926998146
0 DMSP 5D-2 F12 DEB
1 23277U 94057E   13293.50844985  .00007619  00000-0  21570-2 0  4701
2 23277 098.2041 305.2194 0016807 155.9723 005.3575 14.45732582998434
0 DMSP 5D-2 F12 DEB
1 23277U 94057E   13295.51546694  .00008765  00000-0  24779-2 0  4718
2 23277 098.2045 307.1604 0016888 150.1512 010.9548 14.45757042998729
